[{"OBJECT_NAME":"PERUSAT 1","OBJECT_ID":"2016-058A","EPOCH":"2026-03-09T23:16:32.302848","MEAN_MOTION":14.58548827,"ECCENTRICITY":0.00012113,"INCLINATION":98.2091,"RA_OF_ASC_NODE":143.8668,"ARG_OF_PERICENTER":91.7691,"MEAN_ANOMALY":268.3647,"EPHEMERIS_TYPE":0,"CLASSIFICATION_TYPE":"U","NORAD_CAT_ID":41770,"ELEMENT_SET_NO":999,"REV_AT_EPOCH":50463,"BSTAR":7.1568116e-5,"MEAN_MOTION_DOT":2.87e-6,"MEAN_MOTION_DDOT":0},{"OBJECT_NAME":"SENTINEL-1C","OBJECT_ID":"2024-235A","EPOCH":"2026-03-09T23:20:28.555872","MEAN_MOTION":14.59198602,"ECCENTRICITY":0.00013367,"INCLINATION":98.1825,"RA_OF_ASC_NODE":77.6943,"ARG_OF_PERICENTER":90.3687,"MEAN_ANOMALY":269.7665,"EPHEMERIS_TYPE":0,"CLASSIFICATION_TYPE":"U","NORAD_CAT_ID":62261,"ELEMENT_SET_NO":999,"REV_AT_EPOCH":6694,"BSTAR":0.00020454831,"MEAN_MOTION_DOT":9.19e-6,"MEAN_MOTION_DDOT":0}]
